HORYU-4                 
1 41340U 16012D   20032.55048090  .00000474  00000-0  29159-4 0  9995
2 41340  31.0051 123.5726 0013914 230.7664 129.1737 15.01406698217286
E-ST@R-II               
1 41459U 16025D   20033.54214574  .00001296  00000-0  70062-4 0  9994
2 41459  98.0974 136.5831 0164697 309.2793  49.3915 15.06012689206989
AAUSAT 4                
1 41460U 16025E   20033.54777216  .00001945  00000-0  10000-3 0  9999
2 41460  98.0959 138.4653 0154411 299.5917  58.9963 15.08132404207158
DIWATA-1                
1 41463U 98067HT  20033.43722131  .00081550  14066-4  17369-3 0  9998
2 41463  51.6241 127.4804 0002584 345.9249 105.6654 15.98699442216126
BEESAT-4                
1 41619U 16040W   20033.16842441  .00001238  00000-0  54542-4 0  9998
2 41619  97.3393  95.8177 0009729 304.5239  55.5079 15.23650772188643
CANX-7                  
1 41788U 16059F   20033.37962055  .00007777  00000-0  11172-2 0  9996
2 41788  98.2539 118.0137 0022601  15.8935 344.2958 14.76558403179723
RAVAN                   
1 41849U 16067B   20033.25547901  .00000633  00000-0  58122-4 0  9991
2 41849  97.9267 140.9025 0007890 352.6428   7.4677 14.98445920176228
CELTEE 1                
1 41850U 16067C   20033.26155685 -.00000344  00000-0 -24477-4 0  9995
2 41850  97.9208 139.0246 0008608 351.7445   8.3633 14.97117569176121
OPTICUBE 04             
1 41851U 16067D   20032.56779465  .00000633  00000-0  60477-4 0  9995
2 41851  97.9194 138.0109 0008434 357.0853   3.0318 14.96877801176002
AEROCUBE 8D             
1 41852U 16067E   20033.51707345  .00000276  00000-0  29376-4 0  9996
2 41852  97.9208 138.8014 0009301 353.4660   6.6438 14.96837272176125
AEROCUBE 8C             
1 41853U 16067F   20033.27802602  .00000029  00000-0  78192-5 0  9999
2 41853  97.9195 138.4766 0009661 352.1772   7.9296 14.96794709176088
PROMETHEUS 2-1          
1 41854U 16067G   20033.54219445  .00000073  00000-0  11666-4 0  9998
2 41854  97.9205 138.9916 0009925 349.8218  10.2801 14.97073522176133
PROMETHEUS 2-3          
1 41855U 16067H   20032.54095644  .00000022  00000-0  72378-5 0  9993
2 41855  97.9208 138.0030 0010189 353.6346   6.4744 14.97081985175981
INS-1B                  
1 41954U 17008G   20033.15923196  .00001115  00000-0  48261-4 0  9996
2 41954  97.3728  99.9016 0010564  66.5796 293.6551 15.24442386164607
BGUSAT                  
1 41999U 17008BD  20033.19028008  .00002012  00000-0  78789-4 0  9992
2 41999  97.3824 103.3530 0009577  76.5473 283.6833 15.26936960164159
DIDO-2                  
1 42000U 17008BE  20033.16560500  .00000765  00000-0  34197-4 0  9999
2 42000  97.3737 100.4499 0010154  82.4953 277.7437 15.24250998164006
PEASSS                  
1 42015U 17008BV  20033.17550367  .00001031  00000-0  43758-4 0  9996
2 42015  97.3755 101.7983 0008011  86.5883 273.6271 15.25310471164577
AL-FARABI 1             
1 42016U 17008BW  20033.46467209  .00001407  00000-0  57402-4 0  9999
2 42016  97.3778 102.9162 0007867  85.1109 275.1027 15.26067080164784
NAYIF-1 (EO-88)         
1 42017U 17008BX  20033.18460777  .00001385  00000-0  56489-4 0  9991
2 42017  97.3775 102.6517 0007881  85.7509 274.4630 15.26103664164768
NSIGHT                  
1 42726U 98067MF  20033.51321819  .00074216  00000-0  28550-3 0  9992
2 42726  51.6287 208.0804 0002616 314.8098  45.2693 15.86665783153937
UCLSAT                  
1 42765U 17036A   20032.59588116  .00001110  00000-0  49784-4 0  9990
2 42765  97.3217  90.3871 0012424 141.9075 218.3042 15.23207105145155
LITUANICASAT-2          
1 42768U 17036D   20032.41551761  .00001851  00000-0  80140-4 0  9993
2 42768  97.3264  89.9983 0016100 135.0572 225.1971 15.23544029144974
AALTO-1                 
1 42775U 17036L   20032.41638820  .00000659  00000-0  32128-4 0  9991
2 42775  97.3196  88.4020 0015093 136.3925 223.8507 15.21637313144830
URSA MAIOR              
1 42776U 17036M   20033.14447537  .00000748  00000-0  35879-4 0  9991
2 42776  97.3206  89.3388 0014962 133.8776 226.3699 15.21799615144957
COMPASS 2               
1 42777U 17036N   20032.42915267  .00001464  00000-0  64151-4 0  9993
2 42777  97.3257  90.4677 0013613 135.2227 225.0112 15.23499814144931
DIAMOND RED             
1 42783U 17036U   20032.59656746  .00000864  00000-0  40092-4 0  9993
2 42783  97.3216  89.7905 0013097 143.8381 216.3744 15.22575472144927
PEGASUS                 
1 42784U 17036V   20033.11975533  .00001004  00000-0  45648-4 0  9990
2 42784  97.3220  90.6400 0013005 141.2668 218.9503 15.22920759145028
DIAMOND GREEN           
1 42785U 17036W   20032.39821968  .00000868  00000-0  40252-4 0  9995
2 42785  97.3219  89.6282 0012963 145.0115 215.1976 15.22576561144888
DIAMOND BLUE            
1 42786U 17036X   20032.46313495  .00000862  00000-0  40013-4 0  9994
2 42786  97.3219  89.6880 0012799 144.9237 215.2845 15.22575239144891
NUDTSAT                 
1 42787U 17036Y   20032.63093393  .00001218  00000-0  52974-4 0  9991
2 42787  97.3264  91.2628 0011188 136.2610 223.9517 15.24086748144853
SUCHAI                  
1 42788U 17036Z   20032.59954282  .00001201  00000-0  53283-4 0  9996
2 42788  97.3228  90.6013 0012570 141.5723 218.6412 15.23412779145048
SKCUBE                  
1 42789U 17036AA  20032.17268542  .00001104  00000-0  49431-4 0  9990
2 42789  97.3223  90.0765 0012399 143.1232 217.0860 15.23278407144894
VZLUSAT-1               
1 42790U 17036AB  20032.29066947  .00001443  00000-0  62249-4 0  9998
2 42790  97.3243  90.9257 0011988 141.0579 219.1524 15.24075547144955
ROBUSTA-1B              
1 42792U 17036AD  20032.53726902  .00001162  00000-0  51591-4 0  9997
2 42792  97.3225  90.6420 0011998 142.1722 218.0361 15.23460704144970
CICERO 6                
1 42793U 17036AE  20032.40435139  .00000747  00000-0  34729-4 0  9995
2 42793  97.3204  90.0833 0011232 144.2032 215.9960 15.22909774145008
D-SAT                   
1 42794U 17036AF  20033.36431239  .00000144  00000-0  17601-4 0  9990
2 42794  97.5117  72.6288 0127911  99.1055 262.4663 14.91211270142410
CORVUS BC2              
1 42846U 17042X   20033.50586799  .00000293  00000-0  34059-4 0  9994
2 42846  97.5417 283.0313 0010096  20.5226 339.6397 14.92055003139138
CORVUS BC1              
1 42847U 17042Y   20032.50488030  .00000298  00000-0  34469-4 0  9993
2 42847  97.5420 282.2180 0009811  23.2931 336.8731 14.92155538138989
MIRATA                  
1 43015U 17073C   20032.52028697  .00000648  00000-0  55103-4 0  9993
2 43015  97.7229 309.9336 0255046 134.9416 227.2797 14.79379947118976
MAKERSAT 0              
1 43016U 17073D   20032.51235145  .00000437  00000-0  38894-4 0  9995
2 43016  97.7264 310.1247 0257621 135.7171 226.4973 14.79023194118954
ASTERIA                 
1 43020U 98067NH  20033.51198536  .00048501  00000-0  19528-3 0  9991
2 43020  51.6394 220.4972 0002077 280.9772  79.0998 15.85900462125950
DELLINGR (RBLE)         
1 43021U 98067NJ  20033.44899844  .00010495  00000-0  10090-3 0  9990
2 43021  51.6356 253.0760 0001450 231.4290 128.6577 15.67213453125519
AEROCUBE 7B (OCSD B)    
1 43042U 17071F   20032.39648035  .00003567  00000-0  90068-4 0  9992
2 43042  51.6386  18.5978 0003841 265.8128  94.2419 15.42590136121212
AEROCUBE 7C (OCSD C)    
1 43043U 17071G   20032.78641397  .00003555  00000-0  89846-4 0  9999
2 43043  51.6387  16.7163 0004080 272.3525  87.6994 15.42571605121247
CHEFSAT                 
1 43044U 17071H   20032.76772217  .00007257  00000-0  15280-3 0  9997
2 43044  51.6396   6.3017 0003689 275.8196  84.2371 15.46381302121381
ASGARDIA 1              
1 43049U 17071N   20032.78591076  .00003399  00000-0  86026-4 0  9996
2 43049  51.6399  16.0191 0001784 296.1741  63.9061 15.42666963121246
ISARA                   
1 43050U 17071P   20032.80267756  .00007359  00000-0  15876-3 0  9990
2 43050  51.6378   7.9495 0001573 298.1781  61.9047 15.45637774121358
PROPCUBE 2 (FAUNA)      
1 43052U 17071R   20032.35556016  .00004325  00000-0  10563-3 0  9990
2 43052  51.6393  16.9145 0001684 290.8925  69.1880 15.43037863121199
CORVUS BC3              
1 43118U 18004H   20032.46195881  .00000724  00000-0  33658-4 0  9991
2 43118  97.4608 103.7577 0010774 164.9130 195.2430 15.23153719114148
MICROMAS-2A             
1 43131U 18004W   20033.17168592  .00001752  00000-0  73483-4 0  9996
2 43131  97.4645 105.7464 0009761 161.8046 198.3543 15.24803638114329
SPACEBEE-4              
1 43139U 18004AE  20032.45932178  .00002571  00000-0  10309-3 0  9990
2 43139  97.4669 105.9125 0009111 164.9116 195.2396 15.25895953114256
SPACEBEE-3              
1 43140U 18004AF  20032.47687951  .00003171  00000-0  12374-3 0  9991
2 43140  97.4682 106.4199 0008953 163.9002 196.2523 15.26630113114299
SPACEBEE-2              
1 43141U 18004AG  20032.67802872  .00003348  00000-0  12951-3 0  9992
2 43141  97.4692 106.7990 0008983 162.7560 197.3986 15.26881941114339
SPACEBEE-1              
1 43142U 18004AH  20032.67449481  .00003680  00000-0  14085-3 0  9995
2 43142  97.4696 106.9829 0008968 162.8416 197.3128 15.27169542114336
CICERO 7                
1 43143U 18004AJ  20032.45667083  .00001585  00000-0  66641-4 0  9990
2 43143  97.4628 105.2381 0007661 170.8717 189.2661 15.24886623114233
GOMX-4B                 
1 43196U 18015E   20032.60138757  .00000516  00000-0  24100-4 0  9995
2 43196  97.4178 162.3837 0017747 222.7822 137.2033 15.24127390111053
GOMX-4A                 
1 43197U 18015F   20033.43193240  .00000816  00000-0  36217-4 0  9991
2 43197  97.4174 163.2581 0018009 219.3454 211.9022 15.24300316111195
1KUNS-PF                
1 43466U 98067NP  20033.44449359  .00049264  00000-0  27871-3 0  9996
2 43466  51.6316 244.6263 0001156 202.1052 157.9900 15.78588379 98884
UBAKUSAT                
1 43467U 98067NQ  20033.32380454  .00017844  00000-0  15601-3 0  9991
2 43467  51.6337 258.9229 0001860 193.0642 167.0307 15.69009214 98691
